[{"OBJECT_NAME":"JILIN-1 GAOFEN 03D47","OBJECT_ID":"2022-167L","EPOCH":"2026-03-09T22:56:46.924224","MEAN_MOTION":15.31686941,"ECCENTRICITY":0.00089304,"INCLINATION":97.6835,"RA_OF_ASC_NODE":234.6581,"ARG_OF_PERICENTER":110.4031,"MEAN_ANOMALY":249.8169,"EPHEMERIS_TYPE":0,"CLASSIFICATION_TYPE":"U","NORAD_CAT_ID":54692,"ELEMENT_SET_NO":999,"REV_AT_EPOCH":18014,"BSTAR":0.00047294748,"MEAN_MOTION_DOT":0.00014417,"MEAN_MOTION_DDOT":0},{"OBJECT_NAME":"STARLINK-31452","OBJECT_ID":"2024-073S","EPOCH":"2026-03-08T17:13:05.514816","MEAN_MOTION":15.27575157,"ECCENTRICITY":7.728e-5,"INCLINATION":43.0013,"RA_OF_ASC_NODE":323.7939,"ARG_OF_PERICENTER":273.2657,"MEAN_ANOMALY":86.8106,"EPHEMERIS_TYPE":0,"CLASSIFICATION_TYPE":"U","NORAD_CAT_ID":59527,"ELEMENT_SET_NO":999,"REV_AT_EPOCH":10602,"BSTAR":-9.144056e-6,"MEAN_MOTION_DOT":-5.13e-6,"MEAN_MOTION_DDOT":0}]
